NORAD_CAT_ID,OBJECT_NAME,OBJECT_TYPE,EPOCH,MEAN_MOTION,ECCENTRICITY,INCLINATION,RA_OF_ASC_NODE,ARG_OF_PERICENTER,MEAN_ANOMALY,BSTAR,MEAN_MOTION_DOT,MEAN_MOTION_DDOT,TLE_LINE0,TLE_LINE1,TLE_LINE2,SEMIMAJOR_AXIS,PERIOD,APOGEE,PERIGEE,DECAYED
52854.0,STARLINK-4204,PAYLOAD,2022-10-25 14:00:01,15.08839522,0.0001584,53.2145,150.7631,53.749,64.9668,0.0013696,0.00021576,0.0,0 STARLINK-4204,1 52854U 22062AA  22298.58334491  .00021576  00000-0  13696-2 0  9994,2 52854  53.2145 150.7631 0001584  53.7490  64.9668 15.08839522  1301,6917.882,95.438,540.8430000000002,538.651,0.0
52854.0,STARLINK-4204,PAYLOAD,2022-10-25 22:00:01,15.08857877,0.0001733999999999,53.2142,149.2684,47.3403,83.046,-0.0018594999999999,-0.00029775,0.0,0 STARLINK-4204,1 52854U 22062AA  22298.91668981 -.00029775  00000-0 -18595-2 0  9999,2 52854  53.2142 149.2684 0001734  47.3403  83.0460 15.08857877  1304,6917.826,95.436,540.89,538.491,0.0
52854.0,STARLINK-4204,PAYLOAD,2022-10-26 08:00:01,15.08827096,0.0001527,53.2139,147.3963,48.2716,186.6215,-0.0001363,-2.456e-05,0.0,0 STARLINK-4204,1 52854U 22062AA  22299.33335648 -.00002456  00000-0 -13630-3 0  9990,2 52854  53.2139 147.3963 0001527  48.2716 186.6215 15.08827096 20675,6917.92,95.438,540.841,538.7280000000002,0.0
52854.0,STARLINK-4204,PAYLOAD,2022-10-26 14:00:01,15.08829961,0.0001524,53.2139,146.2737,53.6402,99.8712,0.0010166,0.00015924,0.0,0 STARLINK-4204,1 52854U 22062AA  22299.58334491  .00015924  00000-0  10166-2 0  9994,2 52854  53.2139 146.2737 0001524  53.6402  99.8712 15.08829961  1300,6917.911,95.438,540.83,538.722,0.0
52854.0,STARLINK-4204,PAYLOAD,2022-10-26 22:00:00,15.08825985,0.0001704,53.2136,144.7791,47.0185,118.0833,0.00070994,0.00011024,0.0,0 STARLINK-4204,1 52854U 22062AA  22299.91667824  .00011024  00000-0  70994-3 0  9993,2 52854  53.2136 144.7791 0001704  47.0185 118.0833 15.08825985  1305,6917.9230000000025,95.438,540.967,538.609,0.0
52854.0,STARLINK-4204,PAYLOAD,2022-10-27 14:00:01,15.08845741,0.0001585999999999,53.2149,141.7843,54.8118,133.5282,0.00067722,0.00010508,0.0,0 STARLINK-4204,1 52854U 22062AA  22300.58335648  .00010508  00000-0  67722-3 0  9996,2 52854  53.2149 141.7843 0001586  54.8118 133.5282 15.08845741 20868,6917.863,95.437,540.825,538.631,0.0
52854.0,STARLINK-4204,PAYLOAD,2022-10-27 22:00:00,15.08846864,0.0001740999999999,53.2153,140.2897,46.8981,152.9876,-0.00075113,-0.00012225,0.0,0 STARLINK-4204,1 52854U 22062AA  22300.91667824 -.00012225  00000-0 -75113-3 0  9990,2 52854  53.2153 140.2897 0001741  46.8981 152.9876 15.08846864  1307,6917.859,95.437,540.929,538.52,0.0
52854.0,STARLINK-4204,PAYLOAD,2022-10-28 08:00:01,15.08816121,0.000154,53.2153,138.4173,48.2091,256.2395,0.0009811,0.00015351,0.0,0 STARLINK-4204,1 52854U 22062AA  22301.33335648  .00015351  00000-0  98110-3 0  9996,2 52854  53.2153 138.4173 0001540  48.2091 256.2395 15.08816121 20979,6917.953,95.439,540.884,538.753,0.0
52854.0,STARLINK-4204,PAYLOAD,2022-10-28 14:00:01,15.08836289,0.0001576999999999,53.2155,137.295,52.4505,170.6758,0.00040265,6.125e-05,0.0,0 STARLINK-4204,1 52854U 22062AA  22301.58335648  .00006125  00000-0  40265-3 0  9990,2 52854  53.2155 137.2950 0001577  52.4505 170.6758 15.08836289  1303,6917.892,95.438,540.8480000000002,538.6659999999998,0.0
52854.0,STARLINK-4204,PAYLOAD,2022-10-28 22:00:01,15.08821082,0.0001783,53.2156,135.8003,45.2541,189.4694,0.0019547,0.00030942,0.0,0 STARLINK-4204,1 52854U 22062AA  22301.91668981  .00030942  00000-0  19547-2 0  9998,2 52854  53.2156 135.8003 0001783  45.2541 189.4694 15.08821082  1308,6917.938,95.439,541.0369999999998,538.57,0.0
52854.0,STARLINK-4204,PAYLOAD,2022-10-29 10:00:00,15.0883016,0.000155,53.2157,133.5537,48.3086,23.7458,0.00025263,3.734e-05,0.0,0 STARLINK-4204,1 52854U 22062AA  22302.41667824  .00003734  00000-0  25263-3 0  9991,2 52854  53.2157 133.5537 0001550  48.3086  23.7458 15.08830160 21134,6917.91,95.438,540.8480000000002,538.703,0.0
52854.0,STARLINK-4204,PAYLOAD,2022-10-29 12:00:00,15.08833711,0.0001571999999999,53.2159,133.1796,50.2485,114.7011,-0.00015074,-2.686e-05,0.0,0 STARLINK-4204,1 52854U 22062AA  22302.50001157 -.00002686  00000-0 -15074-3 0  9998,2 52854  53.2159 133.1796 0001572  50.2485 114.7011 15.08833711  1306,6917.9,95.438,540.852,538.677,0.0
52854.0,STARLINK-4204,PAYLOAD,2022-10-29 22:00:01,15.08775967,0.0001668,53.2169,131.3124,48.6279,220.8947,0.0021799,0.00034515,0.0,0 STARLINK-4204,1 52854U 22062AA  22302.91668981  .00034515  00000-0  21799-2 0  9991,2 52854  53.2169 131.3124 0001668  48.6279 220.8947 15.08775967  1305,6918.076,95.442,541.095,538.7869999999998,0.0
52854.0,STARLINK-4204,PAYLOAD,2022-10-30 00:00:00,15.0873149,0.0001598,53.2167,130.9385,49.7607,312.5965,0.0087761,0.00141787,0.0,0 STARLINK-4204,1 52854U 22062AA  22303.00001157  .00141787  00000-0  87761-2 0  9999,2 52854  53.2167 130.9385 0001598  49.7607 312.5965 15.08731490 21221,6918.212,95.444,541.183,538.972,0.0
52854.0,STARLINK-4204,PAYLOAD,2022-10-30 14:00:01,15.08863442,0.0001702,53.2169,128.3168,50.681,241.9424,-0.0031914,-0.00050754,0.0,0 STARLINK-4204,1 52854U 22062AA  22303.58334491 -.00050754  00000-0 -31914-2 0  9996,2 52854  53.2169 128.3168 0001702  50.6810 241.9424 15.08863442  1302,6917.809,95.436,540.851,538.496,0.0
52854.0,STARLINK-4204,PAYLOAD,2022-10-30 22:00:01,15.08804638,0.0001948,53.2171,126.8221,46.06399999999999,258.23,0.0026659,0.00042354,0.0,0 STARLINK-4204,1 52854U 22062AA  22303.91668981  .00042354  00000-0  26659-2 0  9992,2 52854  53.2171 126.8221 0001948  46.0640 258.2300 15.08804638  1306,6917.988,95.44,541.201,538.506,0.0
52854.0,STARLINK-4204,PAYLOAD,2022-10-31 14:00:01,15.08848928,0.0001783,53.2175,123.828,52.1541,275.228,-0.00057296,-9.398e-05,0.0,0 STARLINK-4204,1 52854U 22062AA  22304.58334491 -.00009398  00000-0 -57296-3 0  9997,2 52854  53.2175 123.8280 0001783  52.1541 275.2280 15.08848928  1303,6917.853,95.437,540.952,538.485,0.0
52854.0,STARLINK-4204,PAYLOAD,2022-10-31 22:00:01,15.08834054,0.0001937,53.2172,122.3336,45.5263,293.5289,0.0012239,0.00019241,0.0,0 STARLINK-4204,1 52854U 22062AA  22304.91668981  .00019241  00000-0  12239-2 0  9991,2 52854  53.2172 122.3336 0001937  45.5263 293.5289 15.08834054  1301,6917.899,95.438,541.104,538.424,0.0
52854.0,STARLINK-4204,PAYLOAD,2022-11-01 00:00:02,15.08847914,0.0001935,53.2169,121.9595,43.4852,28.4655,-0.00065882,-0.0001075999999999,0.0,0 STARLINK-4204,1 52854U 22062AA  22305.00002315 -.00010760  00000-0 -65882-3 0  9997,2 52854  53.2169 121.9595 0001935  43.4852  28.4655 15.08847914 21525,6917.856,95.437,541.06,538.383,0.0
52854.0,STARLINK-4204,PAYLOAD,2022-11-01 14:00:01,15.08843738,0.0001698,53.2176,119.3393,50.0859,312.0729,-0.00095904,-0.0001551999999999,0.0,0 STARLINK-4204,1 52854U 22062AA  22305.58334491 -.00015520  00000-0 -95904-3 0  9990,2 52854  53.2176 119.3393 0001698  50.0859 312.0729 15.08843738  1305,6917.869000000002,95.437,540.909,538.559,0.0
52854.0,STARLINK-4204,PAYLOAD,2022-11-01 22:00:00,15.08813606,0.000185,53.2173,117.8444,44.355,329.4017,0.0029424,0.00046818,0.0,0 STARLINK-4204,1 52854U 22062AA  22305.91667824  .00046818  00000-0  29424-2 0  9991,2 52854  53.2173 117.8444 0001850  44.3550 329.4017 15.08813606  1309,6917.9609999999975,95.439,541.106,538.5459999999998,0.0
52854.0,STARLINK-4204,PAYLOAD,2022-11-02 06:00:00,15.0884489,0.000164,53.2172,116.3464,47.7101,337.6332,-0.0017323,-0.00027756,0.0,0 STARLINK-4204,1 52854U 22062AA  22306.25001157 -.00027756  00000-0 -17323-2 0  9997,2 52854  53.2172 116.3464 0001640  47.7101 337.6332 15.08844890 21717,6917.865,95.437,540.865,538.596,0.0
52854.0,STARLINK-4204,PAYLOAD,2022-11-02 14:00:01,15.08837147,0.0001610999999999,53.2174,114.8505,48.3413,348.5891,-0.001261,-0.00020299,0.0,0 STARLINK-4204,1 52854U 22062AA  22306.58334491 -.00020299  00000-0 -12610-2 0  9992,2 52854  53.2174 114.8505 0001611  48.3413 348.5891 15.08837147  1300,6917.889,95.438,540.869,538.64,0.0
52854.0,STARLINK-4204,PAYLOAD,2022-11-02 20:11:48,15.08831191,0.0001893,53.2183,113.6905,42.05,318.0637,-1.5984e-05,-5.42e-06,0.0,0 STARLINK-4204,1 52854U 22062AA  22306.84153754 -.00000542  00000-0 -15984-4 0  9990,2 52854  53.2183 113.6905 0001893  42.0500 318.0637 15.08831191 21317,6917.906999999997,95.438,541.082,538.4630000000002,0.0
52854.0,STARLINK-4204,PAYLOAD,2022-11-02 23:22:34,15.08847724,0.0001761999999999,53.2178,113.0963,42.9652,317.1477,-0.00028848,-4.877e-05,0.0,0 STARLINK-4204,1 52854U 22062AA  22306.97401545 -.00004877  00000-0 -28848-3 0  9995,2 52854  53.2178 113.0963 0001762  42.9652 317.1477 15.08847724 21828,6917.857,95.437,540.941,538.503,0.0
52854.0,STARLINK-4204,PAYLOAD,2022-11-03 10:30:17,15.08835911,0.000195,53.2184,111.0145,41.9106,318.2035,-2.55e-05,-6.94e-06,0.0,0 STARLINK-4204,1 52854U 22062AA  22307.43769803 -.00000694  00000-0 -25500-4 0  9997,2 52854  53.2184 111.0145 0001950  41.9106 318.2035 15.08835911 21408,6917.893,95.438,541.107,538.409,0.0
52854.0,STARLINK-4204,PAYLOAD,2022-11-03 13:41:03,15.08833625,0.0001717,53.2182,110.4194,44.772,315.3411,6.752699999999999e-05,7.87e-06,0.0,0 STARLINK-4204,1 52854U 22062AA  22307.57017642  .00000787  00000-0  67527-4 0  9995,2 52854  53.2182 110.4194 0001717  44.7720 315.3411 15.08833625 21425,6917.9,95.438,540.953,538.577,0.0
52854.0,STARLINK-4204,PAYLOAD,2022-11-04 03:59:30,15.08845622,0.0001774999999999,53.2176,107.7437,47.9318,312.1825,0.0001216,1.648e-05,0.0,0 STARLINK-4204,1 52854U 22062AA  22308.16632824  .00001648  00000-0  12160-3 0  9995,2 52854  53.2176 107.7437 0001775  47.9318 312.1825 15.08845622 22008,6917.863,95.437,540.956,538.5,0.0
52854.0,STARLINK-4204,PAYLOAD,2022-11-04 10:21:03,15.08845076,0.0001845,53.2182,106.5543,44.3647,315.7493,0.00010503,1.384e-05,0.0,0 STARLINK-4204,1 52854U 22062AA  22308.43128883  .00001384  00000-0  10503-3 0  9996,2 52854  53.2182 106.5543 0001845  44.3647 315.7493 15.08845076 21556,6917.865,95.437,541.006,538.4540000000002,0.0
